OBJECT_NAME,OBJECT_ID,EPOCH,MEAN_MOTION,ECCENTRICITY,INCLINATION,RA_OF_ASC_NODE,ARG_OF_PERICENTER,MEAN_ANOMALY,EPHEMERIS_TYPE,CLASSIFICATION_TYPE,NORAD_CAT_ID,ELEMENT_SET_NO,REV_AT_EPOCH,BSTAR,MEAN_MOTION_DOT,MEAN_MOTION_DDOT
GPS BIIR-5  (PRN 22),2000-040A,2026-07-07T11:24:49.851072,2.00557795,.01206874,54.8494,214.3563,302.6485,230.0354,0,U,26407,999,19035,0,.96E-6,0
GPS BIIR-8  (PRN 16),2003-005A,2026-07-08T03:43:20.258976,2.00559403,.0148169,54.8798,214.1356,53.1521,26.3310,0,U,27663,999,17173,0,.102E-5,0
GPS BIIR-11 (PRN 19),2004-009A,2026-07-07T08:03:11.114784,2.00554010,.01169182,54.8128,274.8727,173.9909,186.4511,0,U,28190,999,16335,0,-.22E-6,0
GPS BIIR-13 (PRN 02),2004-045A,2026-07-07T17:49:07.665312,2.00556754,.0170057,55.1231,324.0687,316.8842,42.3770,0,U,28474,999,15884,0,-.72E-6,0
GPS BIIRM-1 (PRN 17),2005-038A,2026-07-07T07:18:01.185696,2.00564259,.01281218,54.8618,272.3651,296.3215,70.8869,0,U,28874,999,15224,0,-.17E-6,0
INMARSAT 4-F2 (SOUTHPAN/PRN 122),2005-044A,2026-07-08T00:40:57.686880,1.00272036,.0003043,5.1201,43.6452,54.9726,341.0994,0,U,28899,999,7573,0,-.249E-5,0
GPS BIIRM-2 (PRN 31),2006-042A,2026-07-07T16:14:16.632096,2.00568657,.0106975,54.7126,150.5255,54.9415,119.9754,0,U,29486,999,14480,0,.79E-6,0
GPS BIIRM-3 (PRN 12),2006-052A,2026-07-07T08:41:17.146464,2.00559235,.00848196,54.9330,213.2064,90.9745,270.0553,0,U,29601,999,14381,0,.97E-6,0
GPS BIIRM-4 (PRN 15),2007-047A,2026-07-07T04:03:10.158048,2.00554279,.01675192,54.1095,79.2421,87.8093,274.1544,0,U,32260,999,13721,0,-.3E-6,0
COSMOS 2433 (720),2007-052A,2026-07-06T14:59:12.681312,2.13104455,.00031852,65.5650,315.2799,201.3457,158.6520,0,U,32275,999,14547,0,-.46E-6,0
COSMOS 2432 (719),2007-052B,2026-07-07T14:21:15.986016,2.13103453,.0007481,65.5804,315.3755,325.2447,5.5151,0,U,32276,999,14551,0,-.49E-6,0
GPS BIIRM-5 (PRN 29),2007-062A,2026-07-07T11:36:23.882400,2.00561201,.00359952,55.0155,273.3361,166.9745,188.0514,0,U,32384,999,13591,0,-.19E-6,0
COSMOS 2434 (721),2007-065A,2026-07-07T08:42:20.136384,2.13101429,.00012691,64.3197,191.2352,327.0177,129.1051,0,U,32393,999,14420,0,.121E-5,0
COSMOS 2436 (723),2007-065C,2026-07-08T03:08:12.342624,2.13100210,.0017281,64.3283,191.2816,353.5222,103.9798,0,U,32395,999,14417,0,.125E-5,0
GPS BIIRM-6 (PRN 07),2008-012A,2026-07-08T01:48:37.734336,2.00572923,.0211612,54.4995,149.0903,248.0793,109.6407,0,U,32711,999,13417,0,.74E-6,0
GPS BIIRM-8 (PRN 05),2009-043A,2026-07-07T13:22:56.539776,2.00553170,.0053789,56.2230,26.6524,84.0632,270.2495,0,U,35752,999,12376,0,-.55E-6,0
COSMOS 2456 (730),2009-070A,2026-07-08T03:53:29.603616,2.13103862,.0003837,65.0231,70.2570,336.8240,170.8468,0,U,36111,999,12887,0,-.24E-6,0
COSMOS 2457 (733),2009-070B,2026-07-07T15:01:45.329376,2.13101330,.0003705,65.0084,70.1188,123.5915,100.1518,0,U,36112,999,12886,0,-.23E-6,0
COSMOS 2460 (732),2010-007C,2026-07-07T08:36:23.040000,2.13101922,.000189,65.4077,313.7844,129.7435,250.6526,0,U,36402,999,12716,0,-.48E-6,0
GPS BIIF-1  (PRN 25),2010-022A,2026-07-05T21:37:03.395136,2.00563324,.0126545,54.2692,207.8082,66.1444,291.3330,0,U,36585,999,11796,0,.88E-6,0
BEIDOU-2 IGSO-1 (C06),2010-036A,2026-07-07T14:57:11.145024,1.00266308,.0059224,54.3062,162.7756,225.1869,229.2421,0,U,36828,999,5830,0,-.58E-6,0
BEIDOU-2 G4 (C04),2010-057A,2026-07-08T02:28:55.686720,1.00270636,.0005214,3.6953,68.8204,185.8367,228.5956,0,U,37210,999,5750,0,-.1E-5,0
BEIDOU-2 IGSO-2 (C07),2010-068A,2026-07-07T15:58:10.675776,1.00276167,.0056836,47.5102,271.5779,213.5507,148.3457,0,U,37256,999,5700,0,-.203E-5,0
BEIDOU-2 IGSO-3 (C08),2011-013A,2026-07-06T12:35:26.043936,1.00262965,.00352452,62.4337,39.9702,183.2519,357.0849,0,U,37384,999,5585,0,-.17E-5,0
GSAT-8 (GAGAN/PRN 127),2011-022A,2026-07-08T03:41:45.682080,1.00270996,.0002504,2.1819,81.5721,166.2805,148.7741,0,U,37605,999,5342,0,.98E-6,0
BEIDOU-2 IGSO-4 (C09),2011-038A,2026-07-06T20:09:40.657824,1.00281732,.01600704,54.6039,165.4986,231.4311,284.4062,0,U,37763,999,5484,0,.48E-6,0
GSAT0101 (GALILEO-PFM),2011-060A,2026-07-03T06:32:47.607072,1.70475789,.0002657,56.9888,341.3256,57.8189,302.2010,0,U,37846,999,9139,0,-.76E-6,0
GSAT0102 (GALILEO-FM2),2011-060B,2026-07-03T18:53:16.727424,1.70476028,.0002522,56.9894,341.3121,12.9231,348.3249,0,U,37847,999,9141,0,-.75E-6,0
COSMOS 2476 (744),2011-064A,2026-07-07T07:56:35.678400,2.13103948,.00223712,65.2807,72.1917,236.6236,261.7151,0,U,37867,999,11419,0,-.2E-6,0
COSMOS 2477 (745),2011-064B,2026-07-07T03:43:01.051392,2.13103195,.00193967,65.2873,72.2772,237.9015,305.6247,0,U,37868,999,11418,0,-.2E-6,0
COSMOS 2475 (743),2011-064C,2026-07-08T04:12:39.803616,2.13101995,.0025048,65.2947,72.2646,251.6541,309.8644,0,U,37869,999,11421,0,-.23E-6,0
